NORAD_CAT_ID,OBJECT_NAME,OBJECT_TYPE,EPOCH,MEAN_MOTION,ECCENTRICITY,INCLINATION,RA_OF_ASC_NODE,ARG_OF_PERICENTER,MEAN_ANOMALY,BSTAR,MEAN_MOTION_DOT,MEAN_MOTION_DDOT,TLE_LINE0,TLE_LINE1,TLE_LINE2,SEMIMAJOR_AXIS,PERIOD,APOGEE,PERIGEE,DECAYED
53778.0,STARLINK-4709,PAYLOAD,2023-02-06 12:17:17,15.08835845,0.0001319,53.2175,298.9916,93.6402,266.4741,3.1759e-05,2.18e-06,0.0,0 STARLINK-4709,1 53778U 22111F   23037.51200235  .00000218  00000-0  31759-4 0  9990,2 53778  53.2175 298.9916 0001319  93.6402 266.4741 15.08835845 23469,6917.893,95.438,540.671,538.846,0.0
53778.0,STARLINK-4709,PAYLOAD,2023-02-06 21:49:34,15.08848332,0.0001283,53.2178,297.2063,117.1141,242.9983,3.2622e-05,2.31e-06,0.0,0 STARLINK-4709,1 53778U 22111F   23037.90943271  .00000231  00000-0  32622-4 0  9992,2 53778  53.2178 297.2063 0001283 117.1141 242.9983 15.08848332 23528,6917.855,95.437,540.607,538.832,0.0
53778.0,STARLINK-4709,PAYLOAD,2023-02-07 02:35:43,15.08853003,0.0001391,53.2161,296.3155,106.0124,254.1021,8.2639e-05,1.028e-05,0.0,0 STARLINK-4709,1 53778U 22111F   23038.10814786  .00001028  00000-0  82639-4 0  9991,2 53778  53.2161 296.3155 0001391 106.0124 254.1021 15.08853003 23552,6917.841,95.437,540.668,538.743,0.0
53778.0,STARLINK-4709,PAYLOAD,2023-02-07 21:40:22,15.08846362,0.000132,53.2172,292.7473,116.3896,243.7231,3.9122e-05,3.35e-06,0.0,0 STARLINK-4709,1 53778U 22111F   23038.90303267  .00000335  00000-0  39122-4 0  9995,2 53778  53.2172 292.7473 0001320 116.3896 243.7231 15.08846362 23679,6917.861,95.437,540.639,538.813,0.0
53778.0,STARLINK-4709,PAYLOAD,2023-02-07 23:15:45,15.08847441,0.0001247,53.2186,292.449,90.6539,269.4596,4.2335e-05,3.86e-06,0.0,0 STARLINK-4709,1 53778U 22111F   23038.96927280  .00000386  00000-0  42335-4 0  9994,2 53778  53.2186 292.4490 0001247  90.6539 269.4596 15.08847441 22875,6917.858,95.437,540.585,538.86,0.0
53778.0,STARLINK-4709,PAYLOAD,2023-02-08 11:58:49,15.08845959,0.0001471,53.2165,290.0718,94.7726,265.3434,8.2245e-05,1.021e-05,0.0,0 STARLINK-4709,1 53778U 22111F   23039.49918958  .00001021  00000-0  82245-4 0  9996,2 53778  53.2165 290.0718 0001471  94.7726 265.3434 15.08845959 23768,6917.862,95.437,540.745,538.71,0.0
53778.0,STARLINK-4709,PAYLOAD,2023-02-08 21:31:08,15.08851934,0.0001097,53.2175,288.2871,106.7784,253.3329,8.6509e-05,1.09e-05,0.0,0 STARLINK-4709,1 53778U 22111F   23039.89662294  .00001090  00000-0  86509-4 0  9992,2 53778  53.2175 288.2871 0001097 106.7784 253.3329 15.08851934 23827,6917.844,95.437,540.468,538.95,0.0
53778.0,STARLINK-4709,PAYLOAD,2023-02-09 02:17:16,15.08865428,0.0001259,53.2179,287.3917,94.1681,265.9455,0.00010154,1.33e-05,0.0,0 STARLINK-4709,1 53778U 22111F   23040.09533220  .00001330  00000-0  10154-3 0  9991,2 53778  53.2179 287.3917 0001259  94.1681 265.9455 15.08865428 23044,6917.803,95.436,540.539,538.797,0.0
53778.0,STARLINK-4709,PAYLOAD,2023-02-09 19:46:34,15.08824415,0.0001607,53.2185,284.128,42.1378,317.9738,-0.00017019,-2.994e-05,0.0,0 STARLINK-4709,1 53778U 22111F   23040.82401066 -.00002994  00000-0 -17019-3 0  9990,2 53778  53.2185 284.1280 0001607  42.1378 317.9738 15.08824415 23157,6917.928,95.439,540.905,538.681,0.0
53778.0,STARLINK-4709,PAYLOAD,2023-02-09 22:57:20,15.0882907,0.0001201,53.2177,283.5312,60.4987,299.6125,-0.0001447,-2.589e-05,0.0,0 STARLINK-4709,1 53778U 22111F   23040.95648656 -.00002589  00000-0 -14470-3 0  9990,2 53778  53.2177 283.5312 0001201  60.4987 299.6125 15.08829070 23176,6917.914,95.438,540.61,538.948,0.0
53778.0,STARLINK-4709,PAYLOAD,2023-02-10 02:08:06,15.08838044,0.0001238,53.2182,282.9316,76.9431,283.17,-0.00015387,-2.736e-05,0.0,0 STARLINK-4709,1 53778U 22111F   23041.08896109 -.00002736  00000-0 -15387-3 0  9995,2 53778  53.2182 282.9316 0001238  76.9431 283.1700 15.08838044 24006,6917.886,95.438,540.608,538.895,0.0
53778.0,STARLINK-4709,PAYLOAD,2023-02-10 11:40:24,15.08828893,0.0001151,53.2158,281.1504,80.4137,279.6985,-3.8443e-05,-8.99e-06,0.0,0 STARLINK-4709,1 53778U 22111F   23041.48640029 -.00000899  00000-0 -38443-4 0  9994,2 53778  53.2158 281.1504 0001151  80.4137 279.6985 15.08828893 23258,6917.914,95.438,540.576,538.983,0.0
53778.0,STARLINK-4709,PAYLOAD,2023-02-10 18:01:57,15.08837033,0.0001346,53.2152,279.9594,103.9276,256.1866,6.7258e-05,7.83e-06,0.0,0 STARLINK-4709,1 53778U 22111F   23041.75135678  .00000783  00000-0  67258-4 0  9999,2 53778  53.2152 279.9594 0001346 103.9276 256.1866 15.08837033 23295,6917.889,95.438,540.686,538.823,0.0
53778.0,STARLINK-4709,PAYLOAD,2023-02-10 22:48:06,15.08847444,0.0001008,53.2162,279.0698,75.3441,284.7662,0.00022681,3.324e-05,0.0,0 STARLINK-4709,1 53778U 22111F   23041.95007268  .00003324  00000-0  22681-3 0  9998,2 53778  53.2162 279.0698 0001008  75.3441 284.7662 15.08847444 23325,6917.858,95.437,540.42,539.025,0.0
53778.0,STARLINK-4709,PAYLOAD,2023-02-11 22:38:54,15.08828737,0.0001162,53.2161,274.6088,68.1752,291.9364,0.00022387,3.276e-05,0.0,0 STARLINK-4709,1 53778U 22111F   23042.94369007  .00003276  00000-0  22387-3 0  9999,2 53778  53.2161 274.6088 0001162  68.1752 291.9364 15.08828737 23473,6917.915,95.438,540.584,538.976,0.0
53778.0,STARLINK-4709,PAYLOAD,2023-02-12 14:32:46,15.0883247,0.0001291,53.2169,271.6372,71.5821,288.5312,0.00012544,1.709e-05,0.0,0 STARLINK-4709,1 53778U 22111F   23043.60609150  .00001709  00000-0  12544-3 0  9992,2 53778  53.2169 271.6372 0001291  71.5821 288.5312 15.08832470 24387,6917.903,95.438,540.662,538.875,0.0
53778.0,STARLINK-4709,PAYLOAD,2023-02-13 00:05:04,15.08841388,0.0001192,53.2162,269.8507,74.1867,285.9257,2.3338e-05,8.4e-07,0.0,0 STARLINK-4709,1 53778U 22111F   23044.00352613  .00000084  00000-0  23338-4 0  9995,2 53778  53.2162 269.8507 0001192  74.1867 285.9257 15.08841388 23632,6917.876,95.437,540.566,538.917,0.0
53778.0,STARLINK-4709,PAYLOAD,2023-02-13 14:23:33,15.08838186,0.000123,53.2163,267.1742,85.3477,274.7655,4.2518e-05,3.89e-06,0.0,0 STARLINK-4709,1 53778U 22111F   23044.59969205  .00000389  00000-0  42518-4 0  9999,2 53778  53.2163 267.1742 0001230  85.3477 274.7655 15.08838186 23729,6917.886,95.438,540.602,538.9,0.0
53778.0,STARLINK-4709,PAYLOAD,2023-02-13 23:55:51,15.08847665,0.0001194,53.2158,265.3905,86.2977,273.8152,0.00016253,2.3e-05,0.0,0 STARLINK-4709,1 53778U 22111F   23044.99712612  .00002300  00000-0  16253-3 0  9992,2 53778  53.2158 265.3905 0001194  86.2977 273.8152 15.08847665 23788,6917.857,95.437,540.548,538.896,0.0
53778.0,STARLINK-4709,PAYLOAD,2023-02-14 07:52:47,15.08843798,0.0001227,53.2149,263.9032,82.8696,277.2436,0.0001137,1.522e-05,0.0,0 STARLINK-4709,1 53778U 22111F   23045.32832913  .00001522  00000-0  11370-3 0  9997,2 53778  53.2149 263.9032 0001227  82.8696 277.2436 15.08843798 23832,6917.869,95.437,540.583,538.885,0.0
53778.0,STARLINK-4709,PAYLOAD,2023-02-14 14:14:20,15.08837772,0.0001292,53.214,262.7139,79.6746,280.4392,0.00017555,2.507e-05,0.0,0 STARLINK-4709,1 53778U 22111F   23045.59329290  .00002507  00000-0  17555-3 0  9990,2 53778  53.2140 262.7139 0001292  79.6746 280.4392 15.08837772 24686,6917.887,95.438,540.646,538.858,0.0
53778.0,STARLINK-4709,PAYLOAD,2023-02-14 20:35:52,15.08839483,0.0001282,53.215,261.5243,80.9526,279.1611,0.00019068,2.748e-05,0.0,0 STARLINK-4709,1 53778U 22111F   23045.85825194  .00002748  00000-0  19068-3 0  9991,2 53778  53.2150 261.5243 0001282  80.9526 279.1611 15.08839483 23915,6917.882,95.438,540.634,538.86,0.0
53778.0,STARLINK-4709,PAYLOAD,2023-02-15 20:26:39,15.08847417,0.0001416,53.2137,257.0622,88.4606,271.6548,0.00013508,1.863e-05,0.0,0 STARLINK-4709,1 53778U 22111F   23046.85184548  .00001863  00000-0  13508-3 0  9993,2 53778  53.2137 257.0622 0001416  88.4606 271.6548 15.08847417 24870,6917.858,95.437,540.702,538.743,0.0
53778.0,STARLINK-4709,PAYLOAD,2023-02-16 13:55:54,15.08833276,0.0001356,53.2158,253.7929,83.0875,277.0272,0.00015161,2.125e-05,0.0,0 STARLINK-4709,1 53778U 22111F   23047.58049323  .00002125  00000-0  15161-3 0  9994,2 53778  53.2158 253.7929 0001356  83.0875 277.0272 15.08833276 24173,6917.901,95.438,540.704,538.828,0.0
53778.0,STARLINK-4709,PAYLOAD,2023-02-16 23:28:11,15.08872889,0.0001214,53.2151,252.0098,74.8857,285.227,-0.00041422,-6.88e-05,0.0,0 STARLINK-4709,1 53778U 22111F   23047.97791625 -.00006880  00000-0 -41422-3 0  9999,2 53778  53.2151 252.0098 0001214  74.8857 285.2270 15.08872889 24235,6917.78,95.435,540.485,538.805,0.0
53778.0,STARLINK-4709,PAYLOAD,2023-02-17 20:08:14,15.08823837,0.0001122,53.2153,248.1419,87.8966,272.2155,0.00014798,2.067e-05,0.0,0 STARLINK-4709,1 53778U 22111F   23048.83905597  .00002067  00000-0  14798-3 0  9997,2 53778  53.2153 248.1419 0001122  87.8966 272.2155 15.08823837 24364,6917.93,95.439,540.571,539.019,0.0
53778.0,STARLINK-4709,PAYLOAD,2023-02-18 05:40:32,15.08838001,0.0001154,53.2155,246.3576,91.6356,268.4768,4.5877e-05,4.42e-06,0.0,0 STARLINK-4709,1 53778U 22111F   23049.23649150  .00000442  00000-0  45877-4 0  9990,2 53778  53.2155 246.3576 0001154  91.6356 268.4768 15.08838001 24424,6917.886,95.438,540.55,538.953,0.0
53778.0,STARLINK-4709,PAYLOAD,2023-02-18 13:37:28,15.08861684,0.0001013,53.2169,244.8722,104.7848,255.3257,-0.00033432,-5.608e-05,0.0,0 STARLINK-4709,1 53778U 22111F   23049.56769099 -.00005608  00000-0 -33432-3 0  9995,2 53778  53.2169 244.8722 0001013 104.7848 255.3257 15.08861684 25287,6917.814,95.436,540.38,538.978,0.0
53778.0,STARLINK-4709,PAYLOAD,2023-02-19 11:52:52,15.08837006,0.0001149,53.2174,240.7092,99.9999,260.1123,0.00012962,1.776e-05,0.0,0 STARLINK-4709,1 53778U 22111F   23050.49505389  .00001776  00000-0  12962-3 0  9994,2 53778  53.2174 240.7092 0001149  99.9999 260.1123 15.08837006 24613,6917.89,95.438,540.549,538.96,0.0
53778.0,STARLINK-4709,PAYLOAD,2023-02-20 13:19:03,15.08835406,0.000111,53.2173,235.9514,94.0363,266.0756,6.4423e-05,7.38e-06,0.0,0 STARLINK-4709,1 53778U 22111F   23051.55489761  .00000738  00000-0  64423-4 0  9994,2 53778  53.2173 235.9514 0001110  94.0363 266.0756 15.08835406 24772,6917.894,95.438,540.527,538.992,0.0
